LEMUR-2-MJR092620       
1 58340U 23174CN  26115.79159065  .00011254  00000+0  25475-3 0  9992
2 58340  97.3958 204.9345 0005152 314.1864  45.8959 15.43286181137561
LEMUR-2-NIMBUS2000      
1 58899U 24022A   26115.54760363  .00015026  00000+0  39918-3 0  9994
2 58899  97.4179 324.9397 0007707 313.3277  46.7325 15.38333532124170
LEMUR-2-VALHALLA        
1 58900U 24022B   26115.53425807  .00015148  00000+0  40567-3 0  9994
2 58900  97.4176 324.9409 0008144 307.4615  52.5888 15.38079796124178
LEMUR-2-OBA-NI-JESU     
1 58902U 24022D   26115.60371581  .00160166  00000+0  94802-3 0  9995
2 58902  97.3962 336.4569 0003584 213.9975 146.1062 15.77623623124968
LEMUR-2-CAEL            
1 58903U 24022E   26115.52145269  .00015497  00000+0  39939-3 0  9995
2 58903  97.4159 325.7758 0006318 287.6049  72.4506 15.39271165124239
LEMUR-2-JOHNNYTRUONG    
1 59146U 24043BA  26115.37208715  .00039540  00000+0  55483-3 0  9994
2 59146  97.5329 263.9812 0003834  24.5790 335.5646 15.56635602119819
LEMUR-2-TOMATOKECHUP    
1 60471U 24149D   26115.77669992  .00011191  00000+0  33257-3 0  9993
2 60471  97.3798 197.7351 0003182  83.8907 276.2699 15.34926755 94129
LEMUR-2-STELLA          
1 60533U 24149BT  26115.77287560  .00012464  00000+0  75698-3 0  9998
2 60533  97.6732 198.0487 0001478 134.0109 226.1243 15.10636900 92583
LEMUR-2-MARHISYAM       
1 60536U 24149BW  26115.80135127  .00011989  00000+0  73825-3 0  9997
2 60536  97.6873 198.4709 0000486 326.9369  33.1829 15.10144205 92578
LEMUR-2-AHMED-ASRAR     
1 60576U 24149DN  26115.81777167  .00013039  00000+0  77300-3 0  9998
2 60576  97.6996 200.3839 0003091 148.8108 211.3305 15.11501436 92654
LEMUR-2-LLOYD           
1 60577U 24149DP  26115.77927248  .00010903  00000+0  70832-3 0  9991
2 60577  97.6738 196.9236 0002796 343.6847  16.4290 15.08200562 92497
LEMUR-2-SQUIRRELCOMM    
1 60578U 24149DQ  26115.72823483  .00005605  00000+0  38335-3 0  9998
2 60578  97.6706 196.8311 0004843 215.5957 144.4947 15.06519365 92505
LEMUR-2-SIERRINI        
1 60579U 24149DR  26115.74753852  .00011011  00000+0  68427-3 0  9996
2 60579  97.6838 198.1570 0004746  17.0685 343.0703 15.09823214 92544
LEMUR-2-WILSON          
1 62694U 25009CP  26115.75642367  .00002256  00000+0  21194-3 0  9992
2 62694  97.7031 195.1492 0002993 184.3091 175.8105 14.94927849 69522
LEMUR-2-STAR-FOX        
1 62696U 25009CR  26115.73293984  .00006819  00000+0  52853-3 0  9994
2 62696  97.6924 197.7776 0001385  89.6759 270.4624 15.01724235 69687
LEMUR-2-ARIANNA         
1 62699U 25009CU  26115.79628347  .00007786  00000+0  60423-3 0  9994
2 62699  97.6847 197.6596 0001150  57.0756 303.0579 15.01629715 69699
